H1 CPF  1  DGF 2022 04 11 10  6011 larets     NONE      
H2   304206 5557    27944 2022 04 11 00 00 00 2022 04 18 00 00 00    30 1 1  0 0 0
H5  0.0650
H9
10 0 59683  43200.000000  0      -5798463.708      -3755530.960      -1510619.947
10 0 59683  43230.000000  0      -5861155.999      -3738881.227      -1292203.917
10 0 59683  43260.000000  0      -5917841.850      -3718190.836      -1072471.985
10 0 59683  43290.000000  0      -5968444.845      -3693506.181       -851647.630
10 0 59683  43320.000000  0      -6012894.942      -3664878.054       -629955.567
10 0 59683  43350.000000  0      -6051128.577      -3632361.568       -407621.517
10 0 59683  43380.000000  0      -6083088.752      -3596016.076       -184871.968
10 0 59683  43410.000000  0      -6108725.122      -3555905.089         38066.058
10 0 59683  43440.000000  0      -6127994.070      -3512096.184        260965.244
10 0 59683  43470.000000  0      -6140858.777      -3464660.905        483598.216
10 0 59683  43500.000000  0      -6147289.280      -3413674.670        705737.783
10 0 59683  43530.000000  0      -6147262.525      -3359216.658        927157.177
10 0 59683  43560.000000  0      -6140762.408      -3301369.703       1147630.291
10 0 59683  43590.000000  0      -6127779.813      -3240220.180       1366931.914
10 0 59683  43620.000000  0      -6108312.637      -3175857.883       1584837.971
10 0 59683  43650.000000  0      -6082365.809      -3108375.905       1801125.755
10 0 59683  43680.000000  0      -6049951.299      -3037870.512       2015574.163
10 0 59683  43710.000000  0      -6011088.124      -2964441.011       2227963.923
10 0 59683  43740.000000  0      -5965802.341      -2888189.623       2438077.821
10 0 59683  43770.000000  0      -5914127.038      -2809221.349       2645700.934
10 0 59683  43800.000000  0      -5856102.315      -2727643.827       2850620.855
10 0 59683  43830.000000  0      -5791775.251      -2643567.201       3052627.917
10 0 59683  43860.000000  0      -5721199.869      -2557103.965       3251515.418
10 0 59683  43890.000000  0      -5644437.082      -2468368.820       3447079.837
10 0 59683  43920.000000  0      -5561554.645      -2377478.526       3639121.044
10 0 59683  43950.000000  0      -5472627.082      -2284551.744       3827442.509
10 0 59683  43980.000000  0      -5377735.624      -2189708.888       4011851.504
10 0 59683  44010.000000  0      -5276968.121      -2093071.972       4192159.305
10 0 59683  44040.000000  0      -5170418.966      -1994764.452       4368181.379
10 0 59683  44070.000000  0      -5058188.995      -1894911.070       4539737.581
10 0 59683  44100.000000  0      -4940385.392      -1793637.704       4706652.331
10 0 59683  44130.000000  0      -4817121.579      -1691071.203       4868754.798
10 0 59683  44160.000000  0      -4688517.108      -1587339.237       5025879.076
10 0 59683  44190.000000  0      -4554697.535      -1482570.137       5177864.348
10 0 59683  44220.000000  0      -4415794.300      -1376892.735       5324555.057
10 0 59683  44250.000000  0      -4271944.592      -1270436.215       5465801.063
10 0 59683  44280.000000  0      -4123291.206      -1163329.945       5601457.800
10 0 59683  44310.000000  0      -3969982.396      -1055703.326       5731386.424
10 0 59683  44340.000000  0      -3812171.725       -947685.630       5855453.949
10 0 59683  44370.000000  0      -3650017.901       -839405.850       5973533.387
10 0 59683  44400.000000  0      -3483684.617       -730992.543       6085503.875
10 0 59683  44430.000000  0      -3313340.375       -622573.674       6191250.796
10 0 59683  44460.000000  0      -3139158.311       -514276.469       6290665.896
10 0 59683  44490.000000  0      -2961316.014       -406227.264       6383647.387
10 0 59683  44520.000000  0      -2779995.338       -298551.357       6470100.049
10 0 59683  44550.000000  0      -2595382.215       -191372.866       6549935.322
10 0 59683  44580.000000  0      -2407666.460        -84814.587       6623071.397
10 0 59683  44610.000000  0      -2217041.573         21002.143       6689433.294
10 0 59683  44640.000000  0      -2023704.539        125957.588       6748952.940
10 0 59683  44670.000000  0      -1827855.618        229933.748       6801569.236
10 0 59683  44700.000000  0      -1629698.140        332814.490       6847228.119
10 0 59683  44730.000000  0      -1429438.291        434485.678       6885882.613
10 0 59683  44760.000000  0      -1227284.895        534835.304       6917492.879
10 0 59683  44790.000000  0      -1023449.200        633753.608       6942026.257
10 0 59683  44820.000000  0       -818144.648        731133.199       6959457.297
10 0 59683  44850.000000  0       -611586.659        826869.174       6969767.783
10 0 59683  44880.000000  0       -403992.395        920859.233       6972946.757
10 0 59683  44910.000000  0       -195580.540       1013003.785       6968990.529
10 0 59683  44940.000000  0         13428.936       1103206.058       6957902.684
10 0 59683  44970.000000  0        222815.012       1191372.204       6939694.082
10 0 59683  45000.000000  0        432355.850       1277411.396       6914382.849
10 0 59683  45030.000000  0        641829.032       1361235.925       6881994.359
10 0 59683  45060.000000  0        851011.800       1442761.292       6842561.206
10 0 59683  45090.000000  0       1059681.291       1521906.292       6796123.184
10 0 59683  45120.000000  0       1267614.776       1598593.096       6742727.238
10 0 59683  45150.000000  0       1474589.904       1672747.333       6682427.431
10 0 59683  45180.000000  0       1680384.937       1744298.157       6615284.884
10 0 59683  45210.000000  0       1884778.993       1813178.323       6541367.726
10 0 59683  45240.000000  0       2087552.282       1879324.247       6460751.023
10 0 59683  45270.000000  0       2288486.349       1942676.070       6373516.716
10 0 59683  45300.000000  0       2487364.316       2003177.713       6279753.537
10 0 59683  45330.000000  0       2683971.121       2060776.930       6179556.925
10 0 59683  45360.000000  0       2878093.756       2115425.351       6073028.934
10 0 59683  45390.000000  0       3069521.506       2167078.524       5960278.126
10 0 59683  45420.000000  0       3258046.178       2215695.955       5841419.469
10 0 59683  45450.000000  0       3443462.337       2261241.132       5716574.221
10 0 59683  45480.000000  0       3625567.533       2303681.559       5585869.809
10 0 59683  45510.000000  0       3804162.527       2342988.776       5449439.704
10 0 59683  45540.000000  0       3979051.514       2379138.374       5307423.289
10 0 59683  45570.000000  0       4150042.346       2412110.013       5159965.719
10 0 59683  45600.000000  0       4316946.752       2441887.423       5007217.780
10 0 59683  45630.000000  0       4479580.552       2468458.413       4849335.735
10 0 59683  45660.000000  0       4637763.870       2491814.862       4686481.167
10 0 59683  45690.000000  0       4791321.342       2511952.718       4518820.816
10 0 59683  45720.000000  0       4940082.328       2528871.976       4346526.413
10 0 59683  45750.000000  0       5083881.114       2542576.669       4169774.502
10 0 59683  45780.000000  0       5222557.116       2553074.837       3988746.241
10 0 59683  45810.000000  0       5355955.055       2560378.498       3803627.208
10 0 59683  45840.000000  0       5483925.125       2564503.609       3614607.203
10 0 59683  45870.000000  0       5606323.164       2565470.026       3421880.068
10 0 59683  45900.000000  0       5723010.829       2563301.463       3225643.486
10 0 59683  45930.000000  0       5833855.769       2558025.450       3026098.779
10 0 59683  45960.000000  0       5938731.779       2549673.274       2823450.688
10 0 59683  45990.000000  0       6037518.954       2538279.922       2617907.160
10 0 59683  46020.000000  0       6130103.830       2523884.020       2409679.127
10 0 59683  46050.000000  0       6216379.521       2506527.762       2198980.282
10 0 59683  46080.000000  0       6296245.850       2486256.838       1986026.851
10 0 59683  46110.000000  0       6369609.464       2463120.357       1771037.361
10 0 59683  46140.000000  0       6436383.950       2437170.765       1554232.414
10 0 59683  46170.000000  0       6496489.942       2408463.759       1335834.443
10 0 59683  46200.000000  0       6549855.208       2377058.196       1116067.483
10 0 59683  46230.000000  0       6596414.746       2343016.004        895156.925
10 0 59683  46260.000000  0       6636110.856       2306402.085        673329.280
10 0 59683  46290.000000  0       6668893.211       2267284.210        450811.934
10 0 59683  46320.000000  0       6694718.922       2225732.920        227832.907
10 0 59683  46350.000000  0       6713552.584       2181821.418          4620.604
10 0 59683  46380.000000  0       6725366.313       2135625.453       -218596.426
10 0 59683  46410.000000  0       6730139.781       2087223.209       -441589.729
10 0 59683  46440.000000  0       6727860.240       2036695.191       -664131.183
10 0 59683  46470.000000  0       6718522.538       1984124.102       -885993.240
10 0 59683  46500.000000  0       6702129.132       1929594.727      -1106949.157
10 0 59683  46530.000000  0       6678690.090       1873193.805      -1326773.244
10 0 59683  46560.000000  0       6648223.080       1815009.909      -1545241.094
10 0 59683  46590.000000  0       6610753.356       1755133.313      -1762129.827
10 0 59683  46620.000000  0       6566313.727       1693655.869      -1977218.323
10 0 59683  46650.000000  0       6514944.513       1630670.868      -2190287.456
10 0 59683  46680.000000  0       6456693.499       1566272.917      -2401120.314
10 0 59683  46710.000000  0       6391615.883       1500557.797      -2609502.426
10 0 59683  46740.000000  0       6319774.209       1433622.337      -2815221.979
10 0 59683  46770.000000  0       6241238.296       1365564.277      -3018070.038
99
